STARLINK-11101 [DTC]    
1 59715U 24088H   26183.10466317 -.00004853  00000+0 -35280-4 0  9990
2 59715  53.1591 122.1525 0000972  81.5974 278.5155 15.69674295124243
STARLINK-11099 [DTC]    
1 59716U 24088J   26183.55523687 -.00000690  00000+0 -83647-6 0  9991
2 59716  53.1600 119.9891 0000996  88.0785 272.0347 15.69700615124319
STARLINK-11084 [DTC]    
1 59717U 24088K   26183.54543191 -.00002045  00000+0 -12034-4 0  9999
2 59717  53.1590 119.9243 0001099 107.3805 252.7333 15.69693950124315
STARLINK-11103 [DTC]    
1 59718U 24088L   26183.54053032 -.00002711  00000+0 -17535-4 0  9991
2 59718  53.1589 119.8913 0001411  91.7996 268.3183 15.69687286124313
STARLINK-11096 [DTC]    
1 59719U 24088M   26183.52591498 -.00002836  00000+0 -18581-4 0  9993
2 59719  53.1584 120.5277 0000795  71.5279 288.5825 15.69688136124306
STARLINK-11095 [DTC]    
1 59720U 24088N   26183.08993836 -.00002453  00000+0 -15411-4 0  9992
2 59720  53.1591 122.0572 0001431  35.4212 324.6900 15.69679946124243
STARLINK-31834          
1 59721U 24088P   26183.11691729 -.00001178  00000+0 -26206-4 0  9990
2 59721  53.1608 328.2569 0001066 100.4311 259.6811 15.31701630121381
STARLINK-31843          
1 59722U 24088Q   26183.12159227  .00060858  00000+0  19455-2 0  9998
2 59722  53.1621 328.2843 0001160  82.5675 277.5458 15.31887443121204
STARLINK-31766          
1 59723U 24088R   26183.13766792 -.00000381  00000+0 -75576-6 0  9998
2 59723  53.1622 328.3829 0000205 160.4747 199.6261 15.30195374121206
STARLINK-31836          
1 59724U 24088S   26183.14015360  .00000602  00000+0  31153-4 0  9993
2 59724  53.1597 327.6928 0000533 115.8221 244.2836 15.31704524121215
STARLINK-31820          
1 59725U 24088T   26181.12673328 -.00000855  00000+0 -15780-4 0  9994
2 59725  53.1608 337.1676 0001098  55.9293 304.1812 15.31716071120900
STARLINK-31642          
1 59726U 24088U   26182.82790217  .00005637  00000+0  19312-3 0  9995
2 59726  53.1594 329.2955 0001027  58.5291 301.5811 15.31726586121167
STARLINK-31827          
1 59727U 24088V   26183.11224857  .00001879  00000+0  72299-4 0  9999
2 59727  53.1604 328.2243 0000704 109.0228 251.0850 15.31700972121323
SHIYAN-23 (SY-23)       
1 59728U 24089A   26183.74386123  .00000750  00000+0  89577-4 0  9999
2 59728  97.7769 185.2046 0004978 130.1312 230.0341 14.87067403116150
STARLINK-31472          
1 59730U 24090A   26183.59502679  .00003605  00000+0  14035-3 0  9991
2 59730  43.0031 254.5507 0002161 274.0125  86.0480 15.27606406121014
STARLINK-31817          
1 59731U 24090B   26183.57712196 -.00004096  00000+0 -13957-3 0  9996
2 59731  42.9966 254.4240 0000076 339.3198  20.7650 15.27548398121010
STARLINK-31833          
1 59733U 24090D   26183.60920899  .00000353  00000+0  22373-4 0  9996
2 59733  42.9997 254.6571 0001708 270.7788  89.2868 15.27574775121010
STARLINK-31849          
1 59734U 24090E   26183.53324032 -.00002435  00000+0 -79051-4 0  9996
2 59734  43.0012 248.0288 0001563 269.3698  90.6975 15.27559925121088
STARLINK-31661          
1 59735U 24090F   26183.58705057 -.00000321  00000+0 -21390-5 0  9998
2 59735  43.0003 247.5740 0001345 281.0888  78.9812 15.27576337121092
STARLINK-31707          
1 59736U 24090G   26183.59121782 -.00000247  00000+0  57518-6 0  9995
2 59736  43.0056 254.5256 0001753 260.6889  99.3764 15.27570829121013
STARLINK-31821          
1 59737U 24090H   26183.53740552 -.00002092  00000+0 -66519-4 0  9992
2 59737  43.0011 254.9853 0001406 289.3631  70.7068 15.27570496121009
STARLINK-31819          
1 59738U 24090J   26183.46686462  .00000512  00000+0  28134-4 0  9998
2 59738  42.9996 255.3096 0000697 286.2551  73.8224 15.27580382120992
STARLINK-31726          
1 59739U 24090K   26183.57323735 -.00001391  00000+0 -41041-4 0  9992
2 59739  43.0038 254.3888 0001435 281.8039  78.2652 15.27564499121012
STARLINK-31759          
1 59740U 24090L   26183.55539014 -.00001391  00000+0 -41041-4 0  9991
2 59740  43.0005 255.1118 0001897 261.7656  98.2980 15.27566928121001
STARLINK-31818          
1 59741U 24090M   26183.54767526 -.00000317  00000+0 -19855-5 0  9998
2 59741  42.9994 255.0516 0001332 272.0925  87.9774 15.27573420121007
STARLINK-31816          
1 59742U 24090N   26183.56181091 -.00002594  00000+0 -84793-4 0  9999
2 59742  43.0022 255.1387 0000837 290.9959  69.0803 15.27576791120988
STARLINK-31809          
1 59743U 24090P   26183.52551752 -.00000583  00000+0 -11646-4 0  9994
2 59743  42.9999 247.9665 0001554 276.9544  83.1131 15.27572652121084
STARLINK-31779          
1 59744U 24090Q   26183.58094283 -.00001440  00000+0 -42839-4 0  9993
2 59744  43.0043 254.4451 0001335 266.7430  93.3269 15.27568836121018
STARLINK-31805          
1 59745U 24090R   26183.50398541 -.00001513  00000+0 -45452-4 0  9995
2 59745  43.0007 254.7292 0001212 269.9015  90.1698 15.27584044121002
STARLINK-31681          
1 59746U 24090S   26183.52936275  .00000286  00000+0  19920-4 0  9995
2 59746  43.0007 247.9955 0001806 267.1641  92.9004 15.27579034121089
