OBJECT_NAME,OBJECT_ID,EPOCH,MEAN_MOTION,ECCENTRICITY,INCLINATION,RA_OF_ASC_NODE,ARG_OF_PERICENTER,MEAN_ANOMALY,EPHEMERIS_TYPE,CLASSIFICATION_TYPE,NORAD_CAT_ID,ELEMENT_SET_NO,REV_AT_EPOCH,BSTAR,MEAN_MOTION_DOT,MEAN_MOTION_DDOT
STARLINK-11101 [DTC],2024-088H,2026-07-02T02:30:42.897888,15.69674295,.00009721,53.1591,122.1525,81.5974,278.5155,0,U,59715,999,12424,-.35279685E-4,-.4853E-4,0
STARLINK-11099 [DTC],2024-088J,2026-07-02T13:19:32.465568,15.69700615,.00009962,53.1600,119.9891,88.0785,272.0347,0,U,59716,999,12431,-.836474E-6,-.69E-5,0
STARLINK-11084 [DTC],2024-088K,2026-07-02T13:05:25.317024,15.69693950,.00010994,53.1590,119.9243,107.3805,252.7333,0,U,59717,999,12431,-.12033641E-4,-.2045E-4,0
STARLINK-11103 [DTC],2024-088L,2026-07-02T12:58:21.819648,15.69687286,.0001411,53.1589,119.8913,91.7996,268.3183,0,U,59718,999,12431,-.17534784E-4,-.2711E-4,0
STARLINK-11096 [DTC],2024-088M,2026-07-02T12:37:19.054272,15.69688136,.00007955,53.1584,120.5277,71.5279,288.5825,0,U,59719,999,12430,-.18580976E-4,-.2836E-4,0
STARLINK-11095 [DTC],2024-088N,2026-07-02T02:09:30.674304,15.69679946,.00014311,53.1591,122.0572,35.4212,324.6900,0,U,59720,999,12424,-.15411241E-4,-.2453E-4,0
STARLINK-31834,2024-088P,2026-07-02T02:48:21.653856,15.31701630,.00010665,53.1608,328.2569,100.4311,259.6811,0,U,59721,999,12138,-.26205823E-4,-.1178E-4,0
STARLINK-31843,2024-088Q,2026-07-02T02:55:05.572128,15.31887443,.00011603,53.1621,328.2843,82.5675,277.5458,0,U,59722,999,12120,.19455439E-2,.60858E-3,0
STARLINK-31766,2024-088R,2026-07-02T03:18:14.508288,15.30195374,.00002055,53.1622,328.3829,160.4747,199.6261,0,U,59723,999,12120,-.75576E-6,-.381E-5,0
STARLINK-31836,2024-088S,2026-07-02T03:21:49.271040,15.31704524,.00005333,53.1597,327.6928,115.8221,244.2836,0,U,59724,999,12121,.31152581E-4,.602E-5,0
STARLINK-31820,2024-088T,2026-06-30T03:02:29.755392,15.31716071,.00010982,53.1608,337.1676,55.9293,304.1812,0,U,59725,999,12090,-.15780178E-4,-.855E-5,0
STARLINK-31642,2024-088U,2026-07-01T19:52:10.747488,15.31726586,.00010272,53.1594,329.2955,58.5291,301.5811,0,U,59726,999,12116,.19312028E-3,.5637E-4,0
STARLINK-31827,2024-088V,2026-07-02T02:41:38.276448,15.31700972,.00007048,53.1604,328.2243,109.0228,251.0850,0,U,59727,999,12132,.7229867E-4,.1879E-4,0
SHIYAN-23 (SY-23),2024-089A,2026-07-02T17:51:09.610272,14.87067403,.0004978,97.7769,185.2046,130.1312,230.0341,0,U,59728,999,11615,.89577E-4,.75E-5,0
STARLINK-31472,2024-090A,2026-07-02T14:16:50.314656,15.27606406,.00021613,43.0031,254.5507,274.0125,86.0480,0,U,59730,999,12101,.14034708E-3,.3605E-4,0
STARLINK-31817,2024-090B,2026-07-02T13:51:03.337344,15.27548398,.00000767,42.9966,254.4240,339.3198,20.7650,0,U,59731,999,12101,-.13957181E-3,-.4096E-4,0
STARLINK-31833,2024-090D,2026-07-02T14:37:15.656736,15.27574775,.00017088,42.9997,254.6571,270.7788,89.2868,0,U,59733,999,12101,.22373399E-4,.353E-5,0
STARLINK-31849,2024-090E,2026-07-02T12:47:51.963648,15.27559925,.00015632,43.0012,248.0288,269.3698,90.6975,0,U,59734,999,12108,-.79050908E-4,-.2435E-4,0
STARLINK-31661,2024-090F,2026-07-02T14:05:21.169248,15.27576337,.00013454,43.0003,247.5740,281.0888,78.9812,0,U,59735,999,12109,-.2139031E-5,-.321E-5,0
STARLINK-31707,2024-090G,2026-07-02T14:11:21.219648,15.27570829,.00017536,43.0056,254.5256,260.6889,99.3764,0,U,59736,999,12101,.575179E-6,-.247E-5,0
STARLINK-31821,2024-090H,2026-07-02T12:53:51.836928,15.27570496,.00014063,43.0011,254.9853,289.3631,70.7068,0,U,59737,999,12100,-.66519022E-4,-.2092E-4,0
STARLINK-31819,2024-090J,2026-07-02T11:12:17.103168,15.27580382,.00006979,42.9996,255.3096,286.2551,73.8224,0,U,59738,999,12099,.28133516E-4,.512E-5,0
STARLINK-31726,2024-090K,2026-07-02T13:45:27.707040,15.27564499,.00014357,43.0038,254.3888,281.8039,78.2652,0,U,59739,999,12101,-.41040741E-4,-.1391E-4,0
STARLINK-31759,2024-090L,2026-07-02T13:19:45.708096,15.27566928,.0001897,43.0005,255.1118,261.7656,98.2980,0,U,59740,999,12100,-.41040782E-4,-.1391E-4,0
STARLINK-31818,2024-090M,2026-07-02T13:08:39.142464,15.27573420,.00013328,42.9994,255.0516,272.0925,87.9774,0,U,59741,999,12100,-.198547E-5,-.317E-5,0
STARLINK-31816,2024-090N,2026-07-02T13:29:00.462624,15.27576791,.00008375,43.0022,255.1387,290.9959,69.0803,0,U,59742,999,12098,-.84793207E-4,-.2594E-4,0
STARLINK-31809,2024-090P,2026-07-02T12:36:44.713728,15.27572652,.00015547,42.9999,247.9665,276.9544,83.1131,0,U,59743,999,12108,-.11645789E-4,-.583E-5,0
STARLINK-31779,2024-090Q,2026-07-02T13:56:33.460512,15.27568836,.00013358,43.0043,254.4451,266.7430,93.3269,0,U,59744,999,12101,-.42839127E-4,-.144E-4,0
STARLINK-31805,2024-090R,2026-07-02T12:05:44.339424,15.27584044,.00012124,43.0007,254.7292,269.9015,90.1698,0,U,59745,999,12100,-.45451974E-4,-.1513E-4,0
STARLINK-31681,2024-090S,2026-07-02T12:42:16.941600,15.27579034,.00018067,43.0007,247.9955,267.1641,92.9004,0,U,59746,999,12108,.19919581E-4,.286E-5,0
